OBJECT_NAME,OBJECT_ID,EPOCH,MEAN_MOTION,ECCENTRICITY,INCLINATION,RA_OF_ASC_NODE,ARG_OF_PERICENTER,MEAN_ANOMALY,EPHEMERIS_TYPE,CLASSIFICATION_TYPE,NORAD_CAT_ID,ELEMENT_SET_NO,REV_AT_EPOCH,BSTAR,MEAN_MOTION_DOT,MEAN_MOTION_DDOT
STARLINK-30131,2023-079L,2026-07-10T23:20:31.796736,15.24685064,.00028229,43.0010,109.6198,196.0959,163.9802,0,U,56833,999,17198,.40832144E-3,.10054E-3,0
STARLINK-30069,2023-079M,2026-07-11T04:13:11.471808,15.27581083,.00017041,43.0019,126.2740,271.8161,88.2496,0,U,56834,999,17181,.30176432E-4,.568E-5,0
STARLINK-30144,2023-079N,2026-07-11T05:12:45.559872,15.42633407,.00145525,42.9869,118.7249,177.8407,182.2516,0,U,56835,999,17190,.69342045E-3,.30824E-3,0
STARLINK-30142,2023-079P,2026-07-09T22:40:52.460832,15.27581676,.00013677,43.0042,133.3808,259.7347,100.3350,0,U,56836,999,17162,.40247196E-4,.846E-5,0
STARLINK-30133,2023-079Q,2026-07-11T05:02:13.882560,15.27573061,.00011556,43.0030,129.0794,272.5300,87.5419,0,U,56837,999,17178,-.17849969E-4,-.753E-5,0
STARLINK-30123,2023-079R,2026-07-10T23:48:30.737088,15.27573648,.00008211,43.0002,57.5948,270.3610,89.7148,0,U,56838,999,17260,-.4842318E-5,-.395E-5,0
STARLINK-30076,2023-079S,2026-07-11T04:10:37.715232,15.27585568,.0000979,43.0034,129.6537,288.7137,71.3608,0,U,56839,999,17177,.14762831E-4,.144E-5,0
STARLINK-30073,2023-079T,2026-07-11T18:00:02.000160,15.27545813,.0001784,43.0038,311.7543,275.0532,207.0991,0,U,56840,999,563,.20376392E-2,.56179E-3,0
STARLINK-30078,2023-079U,2026-07-11T01:01:28.911072,15.27584450,.00007553,43.0000,82.7303,11.3470,348.7398,0,U,56841,999,17231,.9683319E-5,.5E-7,0
STARLINK-30135,2023-079V,2026-07-11T04:30:57.804192,15.27594485,.00007282,42.9996,129.6813,284.0532,76.0239,0,U,56842,999,17177,-.94553416E-4,-.2864E-4,0
STARLINK-30137,2023-079W,2026-07-11T05:30:00.690624,15.27564178,.00012205,42.9973,129.1353,42.3541,317.7404,0,U,56843,999,17178,-.6640426E-5,-.445E-5,0
STARLINK-30136,2023-079X,2026-07-11T04:16:09.379776,15.27575485,.00010193,43.0069,129.5873,296.5722,63.5025,0,U,56844,999,17177,.36448335E-4,.741E-5,0
STARLINK-6206,2023-083A,2026-07-11T16:47:51.744480,15.27570857,.00014029,43.0028,105.0703,267.6245,92.4447,0,U,56876,999,17059,.2117777E-5,-.204E-5,0
STARLINK-6209,2023-083B,2026-07-10T22:31:03.993024,15.27577900,.00010315,43.0019,108.8087,229.0714,131.0048,0,U,56877,999,17048,.38115707E-4,.787E-5,0
STARLINK-6182,2023-083C,2026-07-11T18:31:15.229920,15.27575982,.00014563,43.0017,104.7485,247.3157,112.7541,0,U,56878,999,17060,-.90119603E-4,-.2741E-4,0
STARLINK-5707,2023-083D,2026-07-11T04:29:24.135360,15.27579040,.00009265,43.0037,108.0978,281.0590,79.0158,0,U,56879,999,17051,-.9454044E-5,-.522E-5,0
STARLINK-6177,2023-083E,2026-07-11T03:48:41.818176,15.27583189,.00013988,43.0044,107.8930,270.9354,89.1337,0,U,56880,999,17051,-.4696293E-5,-.391E-5,0
STARLINK-5853,2023-083F,2026-07-11T03:00:49.282560,15.27551667,.00008967,43.0009,108.4944,312.3261,47.7515,0,U,56881,999,17050,-.106244E-3,-.3182E-4,0
STARLINK-6175,2023-083G,2026-07-10T04:07:05.969568,15.27575123,.00007281,43.0046,113.3803,308.4123,51.6663,0,U,56882,999,17036,-.82290479E-4,-.2525E-4,0
STARLINK-6171,2023-083H,2026-07-10T22:45:51.798816,15.27578349,.00010483,43.0025,108.8880,270.7810,89.2922,0,U,56883,999,17048,.30670419E-4,.582E-5,0
STARLINK-5515,2023-083J,2026-07-10T05:11:36.216096,15.27501914,.0004792,43.0020,112.8698,359.7325,0.3523,0,U,56884,999,17037,.78032466E-3,.21226E-3,0
STARLINK-5095,2023-083K,2026-07-10T04:01:32.964960,15.27585170,.00010337,43.0047,113.3489,291.2477,68.8264,0,U,56885,999,17036,.53041763E-4,.1198E-4,0
STARLINK-5496,2023-083L,2026-07-11T03:15:23.281632,15.27575642,.0001033,43.0027,107.7107,255.6743,104.3994,0,U,56886,999,17051,.23335911E-4,.38E-5,0
STARLINK-6180,2023-083M,2026-07-11T03:33:23.005152,15.27597738,.00021276,43.0064,112.0712,263.5632,96.4978,0,U,56887,999,17046,-.21419623E-3,-.6155E-4,0
STARLINK-6181,2023-083N,2026-07-11T04:10:11.097984,15.27578322,.00012257,43.0039,111.4100,266.0412,94.0300,0,U,56888,999,17047,.30134576E-4,.567E-5,0
STARLINK-6169,2023-083P,2026-07-10T03:46:43.359456,15.27597764,.00014756,43.0069,113.2631,266.6032,93.4651,0,U,56889,999,17035,-.78141793E-4,-.2413E-4,0
STARLINK-5528,2023-083Q,2026-07-10T23:01:48.849024,15.27578638,.00008904,43.0044,112.3797,266.0151,94.0599,0,U,56890,999,17044,.32858569E-4,.642E-5,0
STARLINK-6213,2023-083R,2026-07-10T22:42:09.865728,15.27581225,.00016017,43.0012,108.8661,256.9544,103.1129,0,U,56891,999,17048,-.39868275E-4,-.1359E-4,0
STARLINK-6219,2023-083S,2026-07-10T23:53:37.274784,15.27578876,.00013302,43.0019,112.6457,243.5242,116.5474,0,U,56892,999,17044,-.40584025E-4,-.1379E-4,0
STARLINK-6216,2023-083T,2026-07-11T03:30:11.135808,15.27573471,.00011746,43.0035,107.7893,259.0525,101.0195,0,U,56893,999,17063,-.13446919E-4,-.632E-5,0
