[ {"name": "STARLINK-30131", "line1": "1 56833U 23079L   26191.97259024  .00010054  00000+0  40832-3 0  9992", "line2": "2 56833  43.0010 109.6198 0002822 196.0959 163.9802 15.24685064171988"}, {"name": "STARLINK-30069", "line1": "1 56834U 23079M   26192.17582722  .00000568  00000+0  30176-4 0  9990", "line2": "2 56834  43.0019 126.2740 0001704 271.8161  88.2496 15.27581083171810"}, {"name": "STARLINK-30144", "line1": "1 56835U 23079N   26192.21719398  .00030824  00000+0  69342-3 0  9991", "line2": "2 56835  42.9869 118.7249 0014552 177.8407 182.2516 15.42633407171908"}, {"name": "STARLINK-30142", "line1": "1 56836U 23079P   26190.94505163  .00000846  00000+0  40247-4 0  9998", "line2": "2 56836  43.0042 133.3808 0001367 259.7347 100.3350 15.27581676171620"}, {"name": "STARLINK-30133", "line1": "1 56837U 23079Q   26192.20988290 -.00000753  00000+0 -17850-4 0  9999", "line2": "2 56837  43.0030 129.0794 0001155 272.5300  87.5419 15.27573061171789"}, {"name": "STARLINK-30123", "line1": "1 56838U 23079R   26191.99202242 -.00000395  00000+0 -48423-5 0  9994", "line2": "2 56838  43.0002  57.5948 0000821 270.3610  89.7148 15.27573648172600"}, {"name": "STARLINK-30076", "line1": "1 56839U 23079S   26192.17404763  .00000144  00000+0  14763-4 0  9997", "line2": "2 56839  43.0034 129.6537 0000979 288.7137  71.3608 15.27585568171771"}, {"name": "STARLINK-30073", "line1": "1 56840U 23079T   26192.75002315  .00056179  00000+0  20376-2 0  9994", "line2": "2 56840  43.0038 311.7543 0001784 275.0532 207.0991 15.27545813  5634"}, {"name": "STARLINK-30078", "line1": "1 56841U 23079U   26192.04269573  .00000005  00000+0  96833-5 0  9999", "line2": "2 56841  43.0000  82.7303 0000755  11.3470 348.7398 15.27584450172316"}, {"name": "STARLINK-30135", "line1": "1 56842U 23079V   26192.18816903 -.00002864  00000+0 -94553-4 0  9993", "line2": "2 56842  42.9996 129.6813 0000728 284.0532  76.0239 15.27594485171777"}, {"name": "STARLINK-30137", "line1": "1 56843U 23079W   26192.22917466 -.00000445  00000+0 -66404-5 0  9993", "line2": "2 56843  42.9973 129.1353 0001220  42.3541 317.7404 15.27564178171786"}, {"name": "STARLINK-30136", "line1": "1 56844U 23079X   26192.17788634  .00000741  00000+0  36448-4 0  9992", "line2": "2 56844  43.0069 129.5873 0001019 296.5722  63.5025 15.27575485171773"}, {"name": "STARLINK-6206", "line1": "1 56876U 23083A   26192.69990445 -.00000204  00000+0  21178-5 0  9994", "line2": "2 56876  43.0028 105.0703 0001402 267.6245  92.4447 15.27570857170595"}, {"name": "STARLINK-6209", "line1": "1 56877U 23083B   26191.93824066  .00000787  00000+0  38116-4 0  9990", "line2": "2 56877  43.0019 108.8087 0001031 229.0714 131.0048 15.27577900170484"}, {"name": "STARLINK-6182", "line1": "1 56878U 23083C   26192.77170405 -.00002741  00000+0 -90120-4 0  9992", "line2": "2 56878  43.0017 104.7485 0001456 247.3157 112.7541 15.27575982170601"}, {"name": "STARLINK-5707", "line1": "1 56879U 23083D   26192.18708490 -.00000522  00000+0 -94540-5 0  9995", "line2": "2 56879  43.0037 108.0978 0000926 281.0590  79.0158 15.27579040170513"}, {"name": "STARLINK-6177", "line1": "1 56880U 23083E   26192.15881734 -.00000391  00000+0 -46963-5 0  9997", "line2": "2 56880  43.0044 107.8930 0001398 270.9354  89.1337 15.27583189170517"}, {"name": "STARLINK-5853", "line1": "1 56881U 23083F   26192.12557040 -.00003182  00000+0 -10624-3 0  9999", "line2": "2 56881  43.0009 108.4944 0000896 312.3261  47.7515 15.27551667170504"}, {"name": "STARLINK-6175", "line1": "1 56882U 23083G   26191.17159687 -.00002525  00000+0 -82290-4 0  9998", "line2": "2 56882  43.0046 113.3803 0000728 308.4123  51.6663 15.27575123170367"}, {"name": "STARLINK-6171", "line1": "1 56883U 23083H   26191.94851619  .00000582  00000+0  30670-4 0  9992", "line2": "2 56883  43.0025 108.8880 0001048 270.7810  89.2922 15.27578349170480"}, {"name": "STARLINK-5515", "line1": "1 56884U 23083J   26191.21639139  .00021226  00000+0  78032-3 0  9995", "line2": "2 56884  43.0020 112.8698 0004792 359.7325   0.3523 15.27501914170379"}, {"name": "STARLINK-5095", "line1": "1 56885U 23083K   26191.16774265  .00001198  00000+0  53042-4 0  9991", "line2": "2 56885  43.0047 113.3489 0001033 291.2477  68.8264 15.27585170170362"}, {"name": "STARLINK-5496", "line1": "1 56886U 23083L   26192.13568613  .00000380  00000+0  23336-4 0  9993", "line2": "2 56886  43.0027 107.7107 0001033 255.6743 104.3994 15.27575642170511"}, {"name": "STARLINK-6180", "line1": "1 56887U 23083M   26192.14818293 -.00006155  00000+0 -21420-3 0  9996", "line2": "2 56887  43.0064 112.0712 0002127 263.5632  96.4978 15.27597738170461"}, {"name": "STARLINK-6181", "line1": "1 56888U 23083N   26192.17373956  .00000567  00000+0  30135-4 0  9995", "line2": "2 56888  43.0039 111.4100 0001225 266.0412  94.0300 15.27578322170472"}, {"name": "STARLINK-6169", "line1": "1 56889U 23083P   26191.15744629 -.00002413  00000+0 -78142-4 0  9996", "line2": "2 56889  43.0069 113.2631 0001475 266.6032  93.4651 15.27597764170356"}, {"name": "STARLINK-5528", "line1": "1 56890U 23083Q   26191.95959316  .00000642  00000+0  32859-4 0  9992", "line2": "2 56890  43.0044 112.3797 0000890 266.0151  94.0599 15.27578638170447"}, {"name": "STARLINK-6213", "line1": "1 56891U 23083R   26191.94594752 -.00001359  00000+0 -39868-4 0  9996", "line2": "2 56891  43.0012 108.8661 0001601 256.9544 103.1129 15.27581225170489"}, {"name": "STARLINK-6219", "line1": "1 56892U 23083S   26191.99557031 -.00001379  00000+0 -40584-4 0  9990", "line2": "2 56892  43.0019 112.6457 0001330 243.5242 116.5474 15.27578876170444"}, {"name": "STARLINK-6216", "line1": "1 56893U 23083T   26192.14596222 -.00000632  00000+0 -13447-4 0  9993", "line2": "2 56893  43.0035 107.7893 0001174 259.0525 101.0195 15.27573471170630"}]